#dP2024  4 24  6  0  0.00000000      96 __u+U IGS20 EXT  IAC
## 2311 280800.00000000   900.00000000 60424 0.2500000000000
+  118   C06C07C08C09C10C11C12C13C14C16C19C20C21C22C23C24C25
+        C26C27C28C29C30C32C33C34C35C36C37C38C39C40C41C42C43
+        C44C45C46E02E03E04E05E07E08E09E10E11E12E13E14E15E19
+        E21E24E25E26E27E30E31E33E34E36G02G03G04G05G06G07G08
+        G09G10G11G12G13G14G15G16G17G18G19G20G21G22G23G24G25
+        G26G27G28G29G30G31G32J02J03J04R01R02R03R04R05R07R08
+        R09R11R12R13R14R15R16R17R18R19R20R21R22R24R25R26  0
++        10 10  9 10  9  9  8  8  9 10  9  8  8  8  8  9  8
++         8 10  9  8  9  8  8  8  8  9  9  9 10 11 10  8 10
++         8  9  8  9  8  7  8  8  8  8  8  8  8  8  7  8  8
++         7  7  8  8  8  8  7  8  8  8  8  7  8  8  8  8  7
++         7  8  8  8  8  7  7  8  8  8  7  7  8  7  7  7  9
++         7  7  7  8  8  8  7  9  9 10  9  8  8  8  8  8  9
++         8  8  9  8  7  9  8  8  8  9  8  9  8  8  8  8  0
%c M  cc GPS ccc cccc cccc cccc cccc ccccc ccccc ccccc ccccc
%c cc cc ccc ccc cccc cccc cccc cccc ccccc ccccc ccccc ccccc
%f  0.0000000  0.000000000  0.00000000000  0.000000000000000
%f  0.0000000  0.000000000  0.00000000000  0.000000000000000
%i    0    0    0    0      0      0      0      0         0
%i    0    0    0    0      0      0      0      0         0
/* IAC                                ULTRA-RAPID PREDICTION
/* S/V CLOCKS ARE ALIGNED TO GNSS TIME                      
/* G:C1WC2W R:C1PC2P E:C1XC5X C:C2IC6I J:C1CC2S             
/* PCV:IGS20_2290 OL/AL:FES2004  NONE     YN ORB:CoN CLK:CoN
*  2024 04 25  1 30  0.00000000
PC06 -12952.776600  39517.893235   5960.911975    372.212449
PC07  -3779.754635  31217.050345  28258.315558   -789.433078
PC08 -16665.812323  20624.307683 -32856.571933    -54.982613
PC09  -9354.065802  38880.289759  12779.018148   -809.580062
PC10   4714.068477  34601.536118  24324.190309     74.565971
PC11   5820.966522 -26795.084466  -5107.106320    529.336637
PC12  14402.856865 -13040.878459 -19999.922907   -236.767587
PC13  -8145.566952  22468.866303 -34624.009671    432.783474
PC14   2037.717269 -16682.423725  22281.707012    724.877662
PC16 -16350.810807  38654.589995    979.441797   -479.669579
PC19   8028.836114  19717.572324 -18031.642698   -913.638035
PC20  -9898.489481  12131.062365 -23083.828618   -395.404860
PC21  23570.435424   3653.186490  14532.578799   -964.064098
PC22  22413.059364  16493.553270  -2331.306717    -27.111291
PC23 -15269.372544  -9500.547178 -21335.412563   -776.434201
PC24  20902.194528 -16841.908004  -7603.158885    934.707104
PC25   3280.451578 -18594.431366 -20552.845307    383.359639
PC26  25523.582390  -6054.274666   9456.775915   -282.049534
PC27 -16058.249809   3142.407439  22580.166785    303.745791
PC28 -12732.759648 -15445.038460  19445.468206    232.448694
PC29   1527.652449  27703.172585  -2985.039374    272.704209
PC30 -10698.336556  21259.186255  14540.649534    -62.841186
PC32 -23599.951280  -3528.435252 -14430.927101   -608.941989
PC33  -7977.812816 -19657.152276  18123.320334   -969.666932
PC34   9923.792471 -22452.902760 -13309.660308    419.572445
PC35  13294.168583  15177.374192 -19279.532567    378.886695
PC36  -3901.433004  18567.189556  20488.571713     61.863539
PC37 -25638.584081   5300.000279  -9684.518774   -963.990723
PC38 -23245.088929  21938.006130 -27522.566144    151.096304
PC39 -17326.551263  37976.563567  -4980.530056     -8.114692
PC40  -6781.424634  26780.584544  31931.055340    -67.070730
PC41 -22016.469564 -16824.950396   3260.743018   -932.524213
PC42  11584.094989 -11014.646427  22924.043347   -442.752669
PC43   -862.744294 -27829.974108   2036.701137     69.246095
PC44  16101.243878  -3603.255373 -22527.649464    453.863976
PC45  15123.262818   9494.219049  21438.420621    -81.932510
PC46 -20514.059316  17025.954885   8307.927563   -142.797136
PE02 -21491.001998 -13392.070931 -15348.634790    122.185317
PE03 -16610.484034 -22781.848798  -8984.452662   -109.484018
PE04  18866.392001   4174.668730  22438.232728   -381.578102
PE05  -4662.249911 -27657.274251   9461.231197   4741.693194
PE07 -10316.020717  16067.934483 -22609.738114   -116.457504
PE08 -18882.956075  -5104.362110 -22204.730622   -260.369763
PE09  10287.821941 -15890.306542  22759.072523   -419.375683
PE10  21817.431896 -15216.889962 -12997.759289   -619.758429
PE11  19277.238691 -22266.196930  -3087.274813   2984.212843
PE12  20991.491977  -6572.551582 -19826.588815  -1009.341971
PE13 -19478.391754  21970.303424   3690.265537    -21.203742
PE14  -4080.674858  23988.057362  14941.227869     16.505314
PE15 -20766.269420   6052.289914  20201.299067    -99.066521
PE19  15580.068248  24137.589383   7149.289482   -181.618001
PE21   1781.809992  17013.327678  24151.896223   -591.040307
PE24  20058.987501 -10706.594655 -18960.660868   -726.284067
PE25  -1303.844930 -16989.907757 -24203.533675      3.730788
PE26  -6258.623525  24676.905387 -15095.610854    435.585283
PE27 -19782.115664  10870.188122  19150.022177   -332.926978
PE30 -29421.173000  -1800.645471   2757.666784   -233.401581
PE31  29411.251135   1604.808700  -2919.637126    -21.733068
PE33   9457.410344  13609.323190 -24526.768380     10.860056
PE34  -9888.493507 -13141.257555  24603.027000   -107.575948
PE36   6849.665985 -24783.789214  14676.475728   -218.063887
PG02 -14791.775633  21776.030203   2546.828444   -447.587206
PG03 -11465.030590  12611.797051 -20486.238260    329.069542
PG04  -4728.051616  19568.223676 -17240.327657    346.489220
PG05  23657.904140  -6097.067768  10354.434607   -170.367365
PG06  13078.161891   6657.609331 -22081.078775    305.655877
PG07   -707.100570  21156.110603  16256.120267   -114.750952
PG08 -11374.062312  10904.946404  21219.526122    141.923063
PG09   6537.275346  24705.750806  -7211.774754    172.558312
PG10 -20524.360833 -10820.366965  13424.475317    -13.177891
PG11  19441.739918  -5738.649604 -17113.792024   -645.537916
PG12  13728.136417 -11719.871852 -19750.385898   -499.606017
PG13  15068.166460  -1321.498468  21644.853899    645.437479
PG14  17084.828740  13264.076678  15579.124902    384.705287
PG15  10050.706283 -12468.008696  20670.728161    152.033300
PG16 -25815.790772    238.118455   6837.913469   -308.318464
PG17  12774.556631  22445.455090  -5412.786968    710.304517
PG18   1036.857688 -20566.035537  16677.289192   -600.210605
PG19  15898.913337  16211.735877 -14269.954404    472.933651
PG20  26410.299397  -1608.478223   -955.368790    378.945293
PG21 -16822.393486  18522.195702   7631.740049    125.395110
PG22  22290.758768  10826.533067   9565.777835     -4.392470
PG23  -9058.927810 -14361.831209  20499.178116    209.236613
PG24  14980.239756 -21335.883648   3325.433056   -463.107178
PG25   2524.314159 -15419.649132 -21807.267156    494.468437
PG26 -25665.417852  -4744.635291  -6028.145673    162.097361
PG27 -16649.858292  -1962.724212  20410.652443    -20.599070
PG28 -12076.280449  -9286.120837 -21770.049200   -216.917217
PG29  -2494.143587 -24727.002584  -9266.256609   -600.769069
PG30   8715.383903  14202.638548  20776.993224   -400.254168
PG31 -18197.700763   1219.985081 -19652.553522   -227.973767
PG32 -15588.004665 -20094.285653  -7797.563254   -618.377814
PJ02 -28415.182399  22799.552937  26332.609554     -4.479723
PJ03 -31906.515881  26118.105482  13887.774417      0.021719
PJ04 -24211.073896  20891.977294 -22389.365070     50.406293
PR01 -17381.723106  -3895.293162 -18243.571501     83.442223
PR02  -5337.851414   9702.123567 -22923.951600    -22.805333
PR03   9728.705703  18547.120448 -14468.933870     98.916276
PR04  18849.859204  17102.082814   1654.046182    233.500546
PR05  17957.312020   6499.191595  16917.038232    130.496593
PR07 -10358.127522 -18791.552306  13876.182778     80.951186
PR08 -19027.892671 -16916.142528  -1739.696048    -75.199204
PR09  18025.379352 -12731.252969 -12848.364432    182.888584
PR11 -14623.805304  -5448.831337 -20161.156214     26.886737
PR12 -24560.716523   5259.953691  -4459.757661     39.369556
PR13 -19911.419794  11749.083243  10765.824722    -46.708788
PR14  -1617.274138  11944.978536  22488.733126     26.419697
PR15  15968.247695   4846.403919  19313.528862     80.268808
PR16  24520.928009  -5254.500542   4779.493764     25.064466
PR17  -2063.795922  24097.289863  -8161.126761     80.983537
PR18   6076.295853  13725.736517 -20597.743340    138.844949
PR19  11076.550585  -1427.015394 -22938.383812   -274.258028
PR20  10844.306912 -20676.074709 -10325.759255   -111.835448
PR21   2309.943891 -24054.863852   8128.455187    -95.520467
PR22  -6593.643646 -13001.774507  20958.594594    115.007371
PR24  -9990.886400  21364.145196   9742.686519    -53.202927
PR25   2784.852953 -23933.506297   8350.274041    -31.431757
PR26 -18800.207399 -17207.931882   -608.902938    -23.167318
EOF
